CCSDS_OMM_VERS = 2.0
CREATION_DATE  = 
ORIGINATOR     = 

OBJECT_NAME    = HULIANWANG DIGUI-117
OBJECT_ID      = 2025-287D
CENTER_NAME    = EARTH
REF_FRAME      = TEME
TIME_SYSTEM    = UTC
MEAN_ELEMENT_THEORY = SGP/SGP4

EPOCH          = 2025-12-11T19:45:00.614592
MEAN_MOTION    = 13.69017640
ECCENTRICITY   = .00072845
INCLINATION    = 86.4968
RA_OF_ASC_NODE = 346.4938
ARG_OF_PERICENTER = 195.1574
MEAN_ANOMALY   = 164.9368

EPHEMERIS_TYPE = 0
CLASSIFICATION_TYPE = U
NORAD_CAT_ID   = 66956
ELEMENT_SET_NO = 999
REV_AT_EPOCH   = 40
BSTAR          = .18810541E-4
MEAN_MOTION_DOT = .33E-6
MEAN_MOTION_DDOT = 0

CCSDS_OMM_VERS = 2.0
CREATION_DATE  = 
ORIGINATOR     = 

OBJECT_NAME    = HULIANWANG DIGUI-118
OBJECT_ID      = 2025-287E
CENTER_NAME    = EARTH
REF_FRAME      = TEME
TIME_SYSTEM    = UTC
MEAN_ELEMENT_THEORY = SGP/SGP4

EPOCH          = 2025-12-10T19:11:19.771296
MEAN_MOTION    = 13.69138079
ECCENTRICITY   = .00073806
INCLINATION    = 86.4949
RA_OF_ASC_NODE = 346.8611
ARG_OF_PERICENTER = 196.9740
MEAN_ANOMALY   = 163.1173

EPHEMERIS_TYPE = 0
CLASSIFICATION_TYPE = U
NORAD_CAT_ID   = 66957
ELEMENT_SET_NO = 999
REV_AT_EPOCH   = 26
BSTAR          = -.19717069E-3
MEAN_MOTION_DOT = -.154E-5
MEAN_MOTION_DDOT = 0

CCSDS_OMM_VERS = 2.0
CREATION_DATE  = 
ORIGINATOR     = 

OBJECT_NAME    = CZ-6A R/B
OBJECT_ID      = 2025-287F
CENTER_NAME    = EARTH
REF_FRAME      = TEME
TIME_SYSTEM    = UTC
MEAN_ELEMENT_THEORY = SGP/SGP4

EPOCH          = 2025-12-11T23:39:18.729216
MEAN_MOTION    = 13.94919208
ECCENTRICITY   = .01072249
INCLINATION    = 86.5058
RA_OF_ASC_NODE = 346.3874
ARG_OF_PERICENTER = 104.4211
MEAN_ANOMALY   = 256.8892

EPHEMERIS_TYPE = 0
CLASSIFICATION_TYPE = U
NORAD_CAT_ID   = 66958
ELEMENT_SET_NO = 999
REV_AT_EPOCH   = 43
BSTAR          = .20439266E-3
MEAN_MOTION_DOT = .307E-5
MEAN_MOTION_DDOT = 0

CCSDS_OMM_VERS = 2.0
CREATION_DATE  = 
ORIGINATOR     = 

OBJECT_NAME    = YAOGAN-47
OBJECT_ID      = 2025-289A
CENTER_NAME    = EARTH
REF_FRAME      = TEME
TIME_SYSTEM    = UTC
MEAN_ELEMENT_THEORY = SGP/SGP4

EPOCH          = 2025-12-11T14:58:29.248032
MEAN_MOTION    = 15.23120362
ECCENTRICITY   = .00008584
INCLINATION    = 97.5268
RA_OF_ASC_NODE = 50.7421
ARG_OF_PERICENTER = 73.6850
MEAN_ANOMALY   = 286.4480

EPHEMERIS_TYPE = 0
CLASSIFICATION_TYPE = U
NORAD_CAT_ID   = 66988
ELEMENT_SET_NO = 999
REV_AT_EPOCH   = 37
BSTAR          = .24920475E-3
MEAN_MOTION_DOT = .5809E-4
MEAN_MOTION_DDOT = 0

CCSDS_OMM_VERS = 2.0
CREATION_DATE  = 
ORIGINATOR     = 

OBJECT_NAME    = CZ-4B R/B
OBJECT_ID      = 2025-289B
CENTER_NAME    = EARTH
REF_FRAME      = TEME
TIME_SYSTEM    = UTC
MEAN_ELEMENT_THEORY = SGP/SGP4

EPOCH          = 2025-12-11T22:39:54.988416
MEAN_MOTION    = 15.66870974
ECCENTRICITY   = .01503979
INCLINATION    = 97.5269
RA_OF_ASC_NODE = 51.2309
ARG_OF_PERICENTER = 5.8849
MEAN_ANOMALY   = 354.4132

EPHEMERIS_TYPE = 0
CLASSIFICATION_TYPE = U
NORAD_CAT_ID   = 66989
ELEMENT_SET_NO = 999
REV_AT_EPOCH   = 44
BSTAR          = .79739188E-3
MEAN_MOTION_DOT = .158184E-2
MEAN_MOTION_DDOT = .9242215E-5

CCSDS_OMM_VERS = 2.0
CREATION_DATE  = 
ORIGINATOR     = 

OBJECT_NAME    = TJS-22
OBJECT_ID      = 2025-290A
CENTER_NAME    = EARTH
REF_FRAME      = TEME
TIME_SYSTEM    = UTC
MEAN_ELEMENT_THEORY = SGP/SGP4

EPOCH          = 2025-12-10T07:11:32.845344
MEAN_MOTION    = 2.15443148
ECCENTRICITY   = .6664534
INCLINATION    = 20.1261
RA_OF_ASC_NODE = 301.1464
ARG_OF_PERICENTER = 180.6877
MEAN_ANOMALY   = 177.6237

EPHEMERIS_TYPE = 0
CLASSIFICATION_TYPE = U
NORAD_CAT_ID   = 66990
ELEMENT_SET_NO = 999
REV_AT_EPOCH   = 3
BSTAR          = .79788243E-1
MEAN_MOTION_DOT = -.38E-6
MEAN_MOTION_DDOT = 0

CCSDS_OMM_VERS = 2.0
CREATION_DATE  = 
ORIGINATOR     = 

OBJECT_NAME    = CZ-3B R/B
OBJECT_ID      = 2025-290B
CENTER_NAME    = EARTH
REF_FRAME      = TEME
TIME_SYSTEM    = UTC
MEAN_ELEMENT_THEORY = SGP/SGP4

EPOCH          = 2025-12-10T06:44:55.577184
MEAN_MOTION    = 2.37676924
ECCENTRICITY   = .72420555
INCLINATION    = 28.4645
RA_OF_ASC_NODE = 302.5976
ARG_OF_PERICENTER = 179.3847
MEAN_ANOMALY   = 182.8677

EPHEMERIS_TYPE = 0
CLASSIFICATION_TYPE = U
NORAD_CAT_ID   = 66991
ELEMENT_SET_NO = 999
REV_AT_EPOCH   = 3
BSTAR          = .43781284E-3
MEAN_MOTION_DOT = .18897E-3
MEAN_MOTION_DDOT = .456211E-6

CCSDS_OMM_VERS = 2.0
CREATION_DATE  = 
ORIGINATOR     = 

OBJECT_NAME    = 2025-292A
OBJECT_ID      = 2025-292A
CENTER_NAME    = EARTH
REF_FRAME      = TEME
TIME_SYSTEM    = UTC
MEAN_ELEMENT_THEORY = SGP/SGP4

EPOCH          = 2025-12-11T22:36:54.165312
MEAN_MOTION    = 15.04475895
ECCENTRICITY   = .00140537
INCLINATION    = 97.6534
RA_OF_ASC_NODE = 58.5007
ARG_OF_PERICENTER = 276.2124
MEAN_ANOMALY   = 83.7501

EPHEMERIS_TYPE = 0
CLASSIFICATION_TYPE = U
NORAD_CAT_ID   = 66993
ELEMENT_SET_NO = 999
REV_AT_EPOCH   = 27
BSTAR          = .57582029E-3
MEAN_MOTION_DOT = .8016E-4
MEAN_MOTION_DDOT = 0

CCSDS_OMM_VERS = 2.0
CREATION_DATE  = 
ORIGINATOR     = 

OBJECT_NAME    = 2025-292B
OBJECT_ID      = 2025-292B
CENTER_NAME    = EARTH
REF_FRAME      = TEME
TIME_SYSTEM    = UTC
MEAN_ELEMENT_THEORY = SGP/SGP4

EPOCH          = 2025-12-11T21:01:03.751968
MEAN_MOTION    = 15.04515803
ECCENTRICITY   = .00140794
INCLINATION    = 97.6549
RA_OF_ASC_NODE = 58.4345
ARG_OF_PERICENTER = 277.2072
MEAN_ANOMALY   = 82.7553

EPHEMERIS_TYPE = 0
CLASSIFICATION_TYPE = U
NORAD_CAT_ID   = 66994
ELEMENT_SET_NO = 999
REV_AT_EPOCH   = 26
BSTAR          = .10044116E-3
MEAN_MOTION_DOT = .1347E-4
MEAN_MOTION_DDOT = 0

CCSDS_OMM_VERS = 2.0
CREATION_DATE  = 
ORIGINATOR     = 

OBJECT_NAME    = 2025-292C
OBJECT_ID      = 2025-292C
CENTER_NAME    = EARTH
REF_FRAME      = TEME
TIME_SYSTEM    = UTC
MEAN_ELEMENT_THEORY = SGP/SGP4

EPOCH          = 2025-12-11T21:01:03.497088
MEAN_MOTION    = 15.04519537
ECCENTRICITY   = .0014385
INCLINATION    = 97.6530
RA_OF_ASC_NODE = 58.4343
ARG_OF_PERICENTER = 277.3974
MEAN_ANOMALY   = 82.5617

EPHEMERIS_TYPE = 0
CLASSIFICATION_TYPE = U
NORAD_CAT_ID   = 66995
ELEMENT_SET_NO = 999
REV_AT_EPOCH   = 26
BSTAR          = .11824466E-3
MEAN_MOTION_DOT = .1597E-4
MEAN_MOTION_DDOT = 0

CCSDS_OMM_VERS = 2.0
CREATION_DATE  = 
ORIGINATOR     = 

OBJECT_NAME    = 2025-292D
OBJECT_ID      = 2025-292D
CENTER_NAME    = EARTH
REF_FRAME      = TEME
TIME_SYSTEM    = UTC
MEAN_ELEMENT_THEORY = SGP/SGP4

EPOCH          = 2025-12-11T21:00:57.670272
MEAN_MOTION    = 15.04579315
ECCENTRICITY   = .00134073
INCLINATION    = 97.6520
RA_OF_ASC_NODE = 58.4351
ARG_OF_PERICENTER = 279.6596
MEAN_ANOMALY   = 80.3115

EPHEMERIS_TYPE = 0
CLASSIFICATION_TYPE = U
NORAD_CAT_ID   = 66996
ELEMENT_SET_NO = 999
REV_AT_EPOCH   = 26
BSTAR          = .11810852E-3
MEAN_MOTION_DOT = .1598E-4
MEAN_MOTION_DDOT = 0

CCSDS_OMM_VERS = 2.0
CREATION_DATE  = 
ORIGINATOR     = 

OBJECT_NAME    = 2025-292E
OBJECT_ID      = 2025-292E
CENTER_NAME    = EARTH
REF_FRAME      = TEME
TIME_SYSTEM    = UTC
MEAN_ELEMENT_THEORY = SGP/SGP4

EPOCH          = 2025-12-11T21:00:50.207040
MEAN_MOTION    = 15.04655353
ECCENTRICITY   = .00137806
INCLINATION    = 97.6541
RA_OF_ASC_NODE = 58.4346
ARG_OF_PERICENTER = 280.9887
MEAN_ANOMALY   = 78.9789

EPHEMERIS_TYPE = 0
CLASSIFICATION_TYPE = U
NORAD_CAT_ID   = 66997
ELEMENT_SET_NO = 999
REV_AT_EPOCH   = 25
BSTAR          = .11812142E-3
MEAN_MOTION_DOT = .1601E-4
MEAN_MOTION_DDOT = 0

CCSDS_OMM_VERS = 2.0
CREATION_DATE  = 
ORIGINATOR     = 

OBJECT_NAME    = 2025-292F
OBJECT_ID      = 2025-292F
CENTER_NAME    = EARTH
REF_FRAME      = TEME
TIME_SYSTEM    = UTC
MEAN_ELEMENT_THEORY = SGP/SGP4

EPOCH          = 2025-12-11T21:00:35.828352
MEAN_MOTION    = 15.04802497
ECCENTRICITY   = .00146067
INCLINATION    = 97.6565
RA_OF_ASC_NODE = 58.4348
ARG_OF_PERICENTER = 280.9703
MEAN_ANOMALY   = 78.9880

EPHEMERIS_TYPE = 0
CLASSIFICATION_TYPE = U
NORAD_CAT_ID   = 66998
ELEMENT_SET_NO = 999
REV_AT_EPOCH   = 26
BSTAR          = .11824681E-3
MEAN_MOTION_DOT = .161E-4
MEAN_MOTION_DDOT = 0

CCSDS_OMM_VERS = 2.0
CREATION_DATE  = 
ORIGINATOR     = 

OBJECT_NAME    = 2025-292G
OBJECT_ID      = 2025-292G
CENTER_NAME    = EARTH
REF_FRAME      = TEME
TIME_SYSTEM    = UTC
MEAN_ELEMENT_THEORY = SGP/SGP4

EPOCH          = 2025-12-11T21:00:29.832192
MEAN_MOTION    = 15.04867239
ECCENTRICITY   = .00144486
INCLINATION    = 97.6571
RA_OF_ASC_NODE = 58.4362
ARG_OF_PERICENTER = 282.8480
MEAN_ANOMALY   = 77.1132

EPHEMERIS_TYPE = 0
CLASSIFICATION_TYPE = U
NORAD_CAT_ID   = 66999
ELEMENT_SET_NO = 999
REV_AT_EPOCH   = 26
BSTAR          = .11818922E-3
MEAN_MOTION_DOT = .1612E-4
MEAN_MOTION_DDOT = 0

CCSDS_OMM_VERS = 2.0
CREATION_DATE  = 
ORIGINATOR     = 

OBJECT_NAME    = 2025-292H
OBJECT_ID      = 2025-292H
CENTER_NAME    = EARTH
REF_FRAME      = TEME
TIME_SYSTEM    = UTC
MEAN_ELEMENT_THEORY = SGP/SGP4

EPOCH          = 2025-12-11T21:00:30.464640
MEAN_MOTION    = 15.04864273
ECCENTRICITY   = .00143386
INCLINATION    = 97.6576
RA_OF_ASC_NODE = 58.4335
ARG_OF_PERICENTER = 283.4517
MEAN_ANOMALY   = 76.5111

EPHEMERIS_TYPE = 0
CLASSIFICATION_TYPE = U
NORAD_CAT_ID   = 67000
ELEMENT_SET_NO = 999
REV_AT_EPOCH   = 13
BSTAR          = .23206484E-3
MEAN_MOTION_DOT = .3225E-4
MEAN_MOTION_DDOT = 0

